start=new Date('2022-12-24T00:00:00.000Z').valueOf();
sats=[{"OBJECT_ID":"2022-114X","SITE":"AFETR","SEMIMAJOR_AXIS":"6917.897","OBJECT_NAME":"STARLINK-4784","LAUNCH_DATE":"2022-09-19","MEAN_ANOMALY":"309.8731","FILE":"3720518","OBJECT_TYPE":"PAYLOAD","PERIAPSIS":"538.433","COUNTRY_CODE":"US","EPOCH":"2022-12-23T17:46:29.133408","RCS_SIZE":"LARGE","TLE_LINE1":"1 53839U 22114X   22357.74061497 -.00000074  00000-0  13479-4 0  9995","MEAN_MOTION_DOT":"-0.00000074","TLE_LINE2":"2 53839  53.2188 155.4389 0001921  50.2430 309.8731 15.08834659 16040","CLASSIFICATION_TYPE":"U","REV_AT_EPOCH":"1604","MEAN_ELEMENT_THEORY":"SGP4","MEAN_MOTION_DDOT":"0.0000000000000","ARG_OF_PERICENTER":"50.2430","RA_OF_ASC_NODE":"155.4389","CENTER_NAME":"EARTH","TIME_SYSTEM":"UTC","PERIOD":"95.438","BSTAR":"0.00001347900000","APOAPSIS":"541.091","ECCENTRICITY":"0.00019210","ELEMENT_SET_NO":"999","MEAN_MOTION":"15.08834659","GP_ID":"221309389","EPHEMERIS_TYPE":"0","NORAD_CAT_ID":"53839","REF_FRAME":"TEME","DECAY_DATE":null,"INCLINATION":"53.2188"},{"LAUNCH_DATE":"2022-09-19","OBJECT_NAME":"STARLINK-4766","MEAN_ANOMALY":"288.2132","OBJECT_ID":"2022-114Y","SITE":"AFETR","SEMIMAJOR_AXIS":"6917.846","TLE_LINE2":"2 53840  53.2180 154.4345 0001403  71.9013 288.2132 15.08851297 15532","MEAN_MOTION_DOT":"0.00000244","CLASSIFICATION_TYPE":"U","PERIAPSIS":"538.740","OBJECT_TYPE":"PAYLOAD","FILE":"3720614","TLE_LINE1":"1 53840U 22114Y   22357.92090605  .00000244  00000-0  33405-4 0  9999","RCS_SIZE":"LARGE","EPOCH":"2022-12-23T22:06:06.282720","COUNTRY_CODE":"US","PERIOD":"95.437","CENTER_NAME":"EARTH","TIME_SYSTEM":"UTC","BSTAR":"0.00003340500000","MEAN_MOTION_DDOT":"0.0000000000000","MEAN_ELEMENT_THEORY":"SGP4","REV_AT_EPOCH":"1553","RA_OF_ASC_NODE":"154.4345","ARG_OF_PERICENTER":"71.9013","REF_FRAME":"TEME","EPHEMERIS_TYPE":"0","NORAD_CAT_ID":"53840","INCLINATION":"53.2180","DECAY_DATE":null,"MEAN_MOTION":"15.08851297","ELEMENT_SET_NO":"999","ECCENTRICITY":"0.00014030","APOAPSIS":"540.681","GP_ID":"221312072"},{"LAUNCH_DATE":"2022-09-19","OBJECT_NAME":"STARLINK-4750","MEAN_ANOMALY":"311.1610","OBJECT_ID":"2022-114Z","SITE":"AFETR","SEMIMAJOR_AXIS":"6917.879","MEAN_MOTION_DOT":"-0.00000039","TLE_LINE2":"2 53841  53.2165 154.4826 0002116  48.9565 311.1610 15.08840529 15531","CLASSIFICATION_TYPE":"U","FILE":"3720614","OBJECT_TYPE":"PAYLOAD","PERIAPSIS":"538.280","EPOCH":"2022-12-23T22:16:43.375584","RCS_SIZE":"LARGE","COUNTRY_CODE":"US","TLE_LINE1":"1 53841U 22114Z   22357.92827981 -.00000039  00000-0  15640-4 0  9999","CENTER_NAME":"EARTH","TIME_SYSTEM":"UTC","PERIOD":"95.438","BSTAR":"0.00001564000000","REV_AT_EPOCH":"1553","MEAN_MOTION_DDOT":"0.0000000000000","MEAN_ELEMENT_THEORY":"SGP4","ARG_OF_PERICENTER":"48.9565","RA_OF_ASC_NODE":"154.4826","REF_FRAME":"TEME","EPHEMERIS_TYPE":"0","NORAD_CAT_ID":"53841","DECAY_DATE":null,"INCLINATION":"53.2165","ECCENTRICITY":"0.00021160","APOAPSIS":"541.208","ELEMENT_SET_NO":"999","MEAN_MOTION":"15.08840529","GP_ID":"221311822"},{"BSTAR":"0.00000853910000","PERIOD":"95.437","CENTER_NAME":"EARTH","TIME_SYSTEM":"UTC","RA_OF_ASC_NODE":"155.2795","ARG_OF_PERICENTER":"86.9597","MEAN_ELEMENT_THEORY":"SGP4","MEAN_MOTION_DDOT":"0.0000000000000","REV_AT_EPOCH":"1604","INCLINATION":"53.2173","DECAY_DATE":null,"EPHEMERIS_TYPE":"0","NORAD_CAT_ID":"53842","REF_FRAME":"TEME","GP_ID":"221309596","MEAN_MOTION":"15.08845441","ELEMENT_SET_NO":"999","APOAPSIS":"540.657","ECCENTRICITY":"0.00013420","MEAN_ANOMALY":"273.1549","OBJECT_NAME":"STARLINK-4754","LAUNCH_DATE":"2022-09-19","SITE":"AFETR","SEMIMAJOR_AXIS":"6917.864","OBJECT_ID":"2022-114AA","CLASSIFICATION_TYPE":"U","TLE_LINE2":"2 53842  53.2173 155.2795 0001342  86.9597 273.1549 15.08845441 16045","MEAN_MOTION_DOT":"-0.00000152","TLE_LINE1":"1 53842U 22114AA  22357.71481691 -.00000152  00000-0  85391-5 0  9998","COUNTRY_CODE":"US","EPOCH":"2022-12-23T17:09:20.181024","RCS_SIZE":"LARGE","OBJECT_TYPE":"PAYLOAD","PERIAPSIS":"538.800","FILE":"3720518"},{"MEAN_ANOMALY":"290.3399","OBJECT_NAME":"STARLINK-4769","LAUNCH_DATE":"2022-09-19","SEMIMAJOR_AXIS":"6917.878","SITE":"AFETR","OBJECT_ID":"2022-114AB","CLASSIFICATION_TYPE":"U","TLE_LINE2":"2 53843  53.2172 155.3498 0001342  69.7738 290.3399 15.08840718 15508","MEAN_MOTION_DOT":"0.00001550","TLE_LINE1":"1 53843U 22114AB  22357.72587153  .00001550  00000-0  11544-3 0  9999","COUNTRY_CODE":"US","RCS_SIZE":"LARGE","EPOCH":"2022-12-23T17:25:15.300192","OBJECT_TYPE":"PAYLOAD","PERIAPSIS":"538.815","FILE":"3720620","BSTAR":"0.00011544000000","PERIOD":"95.438","TIME_SYSTEM":"UTC","CENTER_NAME":"EARTH","RA_OF_ASC_NODE":"155.3498","ARG_OF_PERICENTER":"69.7738","MEAN_ELEMENT_THEORY":"SGP4","MEAN_MOTION_DDOT":"0.0000000000000","REV_AT_EPOCH":"1550","INCLINATION":"53.2172","DECAY_DATE":null,"EPHEMERIS_TYPE":"0","NORAD_CAT_ID":"53843","REF_FRAME":"TEME","GP_ID":"221312292","ELEMENT_SET_NO":"999","MEAN_MOTION":"15.08840718","APOAPSIS":"540.672","ECCENTRICITY":"0.00013420"},{"GP_ID":"221308793","MEAN_MOTION":"15.08843444","ELEMENT_SET_NO":"999","APOAPSIS":"540.677","ECCENTRICITY":"0.00013620","INCLINATION":"53.2185","DECAY_DATE":null,"NORAD_CAT_ID":"53844","EPHEMERIS_TYPE":"0","REF_FRAME":"TEME","RA_OF_ASC_NODE":"155.5340","ARG_OF_PERICENTER":"75.4963","MEAN_ELEMENT_THEORY":"SGP4","MEAN_MOTION_DDOT":"0.0000000000000","REV_AT_EPOCH":"1603","BSTAR":"-0.00001490900000","PERIOD":"95.437","CENTER_NAME":"EARTH","TIME_SYSTEM":"UTC","TLE_LINE1":"1 53844U 22114AC  22357.64120987 -.00000525  00000-0 -14909-4 0  9991","COUNTRY_CODE":"US","EPOCH":"2022-12-23T15:23:20.532768","RCS_SIZE":"LARGE","OBJECT_TYPE":"PAYLOAD","PERIAPSIS":"538.793","FILE":"3720518","CLASSIFICATION_TYPE":"U","TLE_LINE2":"2 53844  53.2185 155.5340 0001362  75.4963 284.6180 15.08843444 16039","MEAN_MOTION_DOT":"-0.00000525","SITE":"AFETR","SEMIMAJOR_AXIS":"6917.870","OBJECT_ID":"2022-114AC","MEAN_ANOMALY":"284.6180","OBJECT_NAME":"STARLINK-4745","LAUNCH_DATE":"2022-09-19"},{"REF_FRAME":"TEME","EPHEMERIS_TYPE":"0","NORAD_CAT_ID":"53845","DECAY_DATE":null,"INCLINATION":"53.2194","ECCENTRICITY":"0.00011680","APOAPSIS":"540.570","ELEMENT_SET_NO":"999","MEAN_MOTION":"15.08834582","GP_ID":"221308999","CENTER_NAME":"EARTH","TIME_SYSTEM":"UTC","PERIOD":"95.438","BSTAR":"0.00013774000000","REV_AT_EPOCH":"1603","MEAN_MOTION_DDOT":"0.0000000000000","MEAN_ELEMENT_THEORY":"SGP4","ARG_OF_PERICENTER":"86.5405","RA_OF_ASC_NODE":"155.6209","MEAN_MOTION_DOT":"0.00001905","TLE_LINE2":"2 53845  53.2194 155.6209 0001168  86.5405 273.5720 15.08834582 16033","CLASSIFICATION_TYPE":"U","FILE":"3720518","OBJECT_TYPE":"PAYLOAD","PERIAPSIS":"538.954","RCS_SIZE":"LARGE","EPOCH":"2022-12-23T15:39:17.295264","COUNTRY_CODE":"US","TLE_LINE1":"1 53845U 22114AD  22357.65228351  .00001905  00000-0  13774-3 0  9996","LAUNCH_DATE":"2022-09-19","OBJECT_NAME":"STARLINK-4753","MEAN_ANOMALY":"273.5720","OBJECT_ID":"2022-114AD","SITE":"AFETR","SEMIMAJOR_AXIS":"6917.897"},{"RA_OF_ASC_NODE":"154.5971","ARG_OF_PERICENTER":"89.3548","MEAN_MOTION_DDOT":"0.0000000000000","MEAN_ELEMENT_THEORY":"SGP4","REV_AT_EPOCH":"1552","BSTAR":"0.00010178000000","PERIOD":"95.437","TIME_SYSTEM":"UTC","CENTER_NAME":"EARTH","GP_ID":"221311836","ELEMENT_SET_NO":"999","MEAN_MOTION":"15.08843589","ECCENTRICITY":"0.00012510","APOAPSIS":"540.600","INCLINATION":"53.2180","DECAY_DATE":null,"REF_FRAME":"TEME","NORAD_CAT_ID":"53846","EPHEMERIS_TYPE":"0","SEMIMAJOR_AXIS":"6917.869","SITE":"AFETR","OBJECT_ID":"2022-114AE","MEAN_ANOMALY":"270.7588","LAUNCH_DATE":"2022-09-19","OBJECT_NAME":"STARLINK-4746","TLE_LINE1":"1 53846U 22114AE  22357.83256164  .00001332  00000-0  10178-3 0  9999","RCS_SIZE":"LARGE","EPOCH":"2022-12-23T19:58:53.325696","COUNTRY_CODE":"US","OBJECT_TYPE":"PAYLOAD","PERIAPSIS":"538.869","FILE":"3720614","CLASSIFICATION_TYPE":"U","TLE_LINE2":"2 53846  53.2180 154.5971 0001251  89.3548 270.7588 15.08843589 15526","MEAN_MOTION_DOT":"0.00001332"},{"OBJECT_NAME":"STARLINK-4777","LAUNCH_DATE":"2022-09-19","MEAN_ANOMALY":"274.2145","OBJECT_ID":"2022-114AF","SEMIMAJOR_AXIS":"6917.879","SITE":"AFETR","MEAN_MOTION_DOT":"-0.00000273","TLE_LINE2":"2 53847  53.2170 154.3654 0001402  85.9008 274.2145 15.08840314 15535","CLASSIFICATION_TYPE":"U","FILE":"3720614","OBJECT_TYPE":"PAYLOAD","PERIAPSIS":"538.775","COUNTRY_CODE":"US","RCS_SIZE":"LARGE","EPOCH":"2022-12-23T21:50:11.598144","TLE_LINE1":"1 53847U 22114AF  22357.90985646 -.00000273  00000-0  96607-6 0  9990","CENTER_NAME":"EARTH","TIME_SYSTEM":"UTC","PERIOD":"95.438","BSTAR":"0.00000096607000","REV_AT_EPOCH":"1553","MEAN_ELEMENT_THEORY":"SGP4","MEAN_MOTION_DDOT":"0.0000000000000","ARG_OF_PERICENTER":"85.9008","RA_OF_ASC_NODE":"154.3654","NORAD_CAT_ID":"53847","EPHEMERIS_TYPE":"0","REF_FRAME":"TEME","DECAY_DATE":null,"INCLINATION":"53.2170","APOAPSIS":"540.714","ECCENTRICITY":"0.00014020","ELEMENT_SET_NO":"999","MEAN_MOTION":"15.08840314","GP_ID":"221311830"},{"BSTAR":"0.00015062000000","CENTER_NAME":"EARTH","TIME_SYSTEM":"UTC","PERIOD":"95.438","ARG_OF_PERICENTER":"80.3037","RA_OF_ASC_NODE":"154.5498","REV_AT_EPOCH":"1552","MEAN_ELEMENT_THEORY":"SGP4","MEAN_MOTION_DDOT":"0.0000000000000","DECAY_DATE":null,"INCLINATION":"53.2172","NORAD_CAT_ID":"53848","EPHEMERIS_TYPE":"0","REF_FRAME":"TEME","GP_ID":"221312071","APOAPSIS":"540.576","ECCENTRICITY":"0.00011990","MEAN_MOTION":"15.08839718","ELEMENT_SET_NO":"999","MEAN_ANOMALY":"279.8090","OBJECT_NAME":"STARLINK-4780","LAUNCH_DATE":"2022-09-19","SITE":"AFETR","SEMIMAJOR_AXIS":"6917.881","OBJECT_ID":"2022-114AG","CLASSIFICATION_TYPE":"U","MEAN_MOTION_DOT":"0.00002110","TLE_LINE2":"2 53848  53.2172 154.5498 0001199  80.3037 279.8090 15.08839718 15525","COUNTRY_CODE":"US","EPOCH":"2022-12-23T19:48:16.599168","RCS_SIZE":"LARGE","TLE_LINE1":"1 53848U 22114AG  22357.82519212  .00002110  00000-0  15062-3 0  9998","FILE":"3720614","OBJECT_TYPE":"PAYLOAD","PERIAPSIS":"538.917"}];
